[{"OBJECT_NAME":"STARLINK-32352","OBJECT_ID":"2024-202C","EPOCH":"2026-03-09T11:07:06.441600","MEAN_MOTION":15.2759426,"ECCENTRICITY":7.462e-5,"INCLINATION":42.9951,"RA_OF_ASC_NODE":227.9627,"ARG_OF_PERICENTER":262.733,"MEAN_ANOMALY":97.3437,"EPHEMERIS_TYPE":0,"CLASSIFICATION_TYPE":"U","NORAD_CAT_ID":61847,"ELEMENT_SET_NO":999,"REV_AT_EPOCH":7543,"BSTAR":-0.00018270001,"MEAN_MOTION_DOT":-5.288e-5,"MEAN_MOTION_DDOT":0},{"OBJECT_NAME":"OBJECT J","OBJECT_ID":"2026-023J","EPOCH":"2026-03-09T17:10:35.014656","MEAN_MOTION":15.23262782,"ECCENTRICITY":0.00239883,"INCLINATION":96.6344,"RA_OF_ASC_NODE":144.1739,"ARG_OF_PERICENTER":114.5009,"MEAN_ANOMALY":245.8735,"EPHEMERIS_TYPE":0,"CLASSIFICATION_TYPE":"U","NORAD_CAT_ID":67682,"ELEMENT_SET_NO":999,"REV_AT_EPOCH":484,"BSTAR":0.00057379131,"MEAN_MOTION_DOT":0.00013658,"MEAN_MOTION_DDOT":0}]
